CYGNUS NG-23            
1 65616U 25208A   26008.50004492  .00009772  00000+0  18407-3 0  9998
2 65616  51.6332   9.9851 0007637 355.2000   4.8914 15.49175445   221
DRAGONFLY               
1 65729U 98067XH  26008.34786160  .00379937  00000+0  15305-2 0  9993
2 65729  51.6227 358.4109 0008512  71.6766 288.5162 15.84784762 17364
1998-067XK              
1 65731U 98067XK  26008.36417102  .00151235  00000+0  11090-2 0  9991
2 65731  51.6285   1.5734 0005022  46.2332 313.9081 15.72143731 17322
RSP-03                  
1 65732U 98067XL  26008.36605675  .00235339  00000+0  13481-2 0  9990
2 65732  51.6258   0.0614 0006208  53.7645 306.3929 15.77562147 17352
GHS-01                  
1 65733U 98067XM  26007.34016378  .00508707  11219-3  14807-2 0  9997
2 65733  51.6249   2.1848 0009122  72.4376 287.7626 15.92234495 17234
YOTSUBA-KULOVER         
1 65941U 98067XN  26008.20938913  .00097036  00000+0  10096-2 0  9998
2 65941  51.6293   6.5476 0003877  72.8139 287.3280 15.63786992 13994
BOTAN                   
1 65942U 98067XP  26008.26486476  .00169323  00000+0  13611-2 0  9992
2 65942  51.6270   4.6605 0004651  66.4974 293.6511 15.69891545 14029
E-KAGAKU-1              
1 65943U 98067XQ  26008.01756149  .00076461  00000+0  79998-3 0  9994
2 65943  51.6303   7.5238 0002460  65.5030 294.6221 15.63751570 13968
HTV-X1                  
1 66174U 25241A   26008.50004492  .00009772  00000+0  18407-3 0  9995
2 66174  51.6332   9.9851 0007637 355.2000   4.8914 15.49175445   513
SZ-21 MODULE            
1 66515U 25246C   26007.86050997  .00025291  00000+0  26192-3 0  9992
2 66515  41.4742 216.5245 0001494  84.1343 275.9668 15.64106684  8533
SHENZHOU-22             
1 66645U 25272A   26008.60716472  .00042775  00000+0  50792-3 0  9994
2 66645  41.4648 213.4557 0011130 245.5686 114.3992 15.60317657267493
